COSMOS 2426 (717)       
1 29671U 06062B   19249.67977539  .00000038  00000-0  10000-3 0  9992
2 29671  65.0821 277.5365 0021204 179.5559 264.5423  2.12961899 98835
COSMOS 2433 (720)       
1 32275U 07052A   19250.08855985 -.00000037  00000-0  10000-3 0  9993
2 32275  65.8860  38.4037 0002102 198.6571 193.9711  2.13104424 92352
COSMOS 2432 (719)       
1 32276U 07052B   19250.16082841 -.00000037  00000-0  10000-3 0  9996
2 32276  65.8984  38.4854 0008519 339.5616  59.4266  2.13103731 92352
COSMOS 2434 (721)       
1 32393U 07065A   19250.36561234  .00000046  00000-0  00000+0 0  9994
2 32393  64.6875 276.1693 0002574 157.4590 335.1424  2.13103054 91068
COSMOS 2436 (723)       
1 32395U 07065C   19250.34953714  .00000045  00000-0  10000-3 0  9996
2 32395  64.6946 276.2255 0014787 350.4572 182.4994  2.13104417 90998
COSMOS 2456 (730)       
1 36111U 09070A   19250.23341227 -.00000042  00000-0  00000+0 0  9995
2 36111  64.2040 155.8184 0004635 316.1033 248.2748  2.13103097 75729
COSMOS 2457 (733)       
1 36112U 09070B   19249.73306581 -.00000038  00000-0  00000+0 0  9998
2 36112  64.1857 155.7370 0005104 171.6888 133.4980  2.13101660 75711
COSMOS 2459 (731)       
1 36400U 10007A   19249.69693163 -.00000038  00000-0  10000-3 0  9995
2 36400  65.7883  37.4234 0024347 354.9334 312.5987  2.13102164 74068
COSMOS 2461 (735)       
1 36401U 10007B   19250.14339424 -.00000039  00000-0  10000-3 0  9996
2 36401  65.7828  37.3792 0008350  79.3130 121.2586  2.13102071 74072
COSMOS 2460 (732)       
1 36402U 10007C   19250.38430113 -.00000040  00000-0  10000-3 0  9992
2 36402  65.7724  37.3351 0002446 120.3278 304.7395  2.13101455 74081
COSMOS 2464 (736)       
1 37139U 10041C   19250.36771693  .00000045  00000-0  00000+0 0  9996
2 37139  64.2873 275.7511 0023504   6.8366 353.0623  2.13100743 70141
COSMOS 2474 (742)       
1 37829U 11055A   19249.58645917 -.00000035  00000-0  00000+0 0  9999
2 37829  64.5257 156.7462 0009173 247.5739  36.5234  2.13101942 61708
COSMOS 2476 (744)       
1 37867U 11064A   19249.43099230 -.00000034  00000-0  00000+0 0  9995
2 37867  64.5061 156.8014 0019264 240.6946 330.3060  2.13102030 61052
COSMOS 2477 (745)       
1 37868U 11064B   19250.49819829 -.00000043  00000-0  00000+0 0  9998
2 37868  64.5131 156.8191 0016960 241.8124 246.5530  2.13101926 61039
COSMOS 2475 (743)       
1 37869U 11064C   19250.55981976 -.00000043  00000-0  00000+0 0  9999
2 37869  64.5209 156.8157 0021075 264.4589 228.3537  2.13102289 61046
COSMOS 2485 (747)       
1 39155U 13019A   19249.32980681 -.00000032  00000-0  00000+0 0  9994
2 39155  64.6749 157.0095 0019805 235.6216 302.4522  2.13102092 49524
COSMOS 2492 (754)       
1 39620U 14012A   19249.61719874 -.00000039  00000-0  10000-3 0  9993
2 39620  65.6631  37.1808 0011672 331.5025 102.1345  2.13103324 42485
COSMOS 2500 (755)       
1 40001U 14032A   19250.10696551 -.00000040  00000-0  00000+0 0  9999
2 40001  65.6029  37.1012 0006830 185.4847 125.1339  2.13102641 40708
COSMOS 2501 (702K)      
1 40315U 14075A   19250.39248543  .00000043  00000-0  00000+0 0  9991
2 40315  64.0085 276.8013 0017847 210.6348 116.3032  2.13098699 37111
COSMOS 2514 (751)       
1 41330U 16008A   19250.41389984 -.00000042  00000-0  00000+0 0  9995
2 41330  65.4090  37.0357 0009869 202.3309 165.6023  2.13103098 27888
COSMOS 2516 (753)       
1 41554U 16032A   19250.60472019  .00000045  00000-0  00000+0 0  9995
2 41554  64.2295 276.7858 0014982 221.1602 183.7346  2.13101738 25498
COSMOS 2522 (752)       
1 42939U 17055A   19249.40656108  .00000036  00000-0  00000+0 0  9998
2 42939  64.4634 276.9224 0009921 244.1733 188.0408  2.13101999 15227
COSMOS 2527 (756)       
1 43508U 18053A   19249.66270424 -.00000036  00000-0  00000+0 0  9992
2 43508  64.8379 156.7896 0007575 236.0959  64.0006  2.13102721  9519
COSMOS 2529 (757)       
1 43687U 18086A   19249.60743772  .00000038  00000-0  00000+0 0  9992
2 43687  64.6745 276.9588 0012107 264.3821 277.6332  2.13102054  6536
COSMOS 2534 (758)       
1 44299U 19030A   19250.28768325  .00000044  00000-0  00000+0 0  9996
2 44299  64.7440 276.7259 0014801 281.7362 197.3390  2.13102009  2198
